HULIANWANG DIGUI-113    
1 66923U 25285J   26066.16600943 -.00000239  00000+0 -24765-3 0  9999
2 66923  50.0098 151.5661 0000084 309.5038  50.5827 13.29330249 12494
HULIANWANG DIGUI-114    
1 66953U 25287A   26066.15196809  .00000051  00000+0  85660-4 0  9996
2 66953  86.4970 316.8676 0001970  80.2275 279.9081 13.24415856 11831
HULIANWANG DIGUI-115    
1 66954U 25287B   26066.14439584  .00000053  00000+0  88863-4 0  9996
2 66954  86.4986 316.8794 0002050  79.1608 280.9757 13.24415989 11836
HULIANWANG DIGUI-116    
1 66955U 25287C   26066.13684889  .00000047  00000+0  76070-4 0  9996
2 66955  86.4926 316.8174 0002048  78.9506 281.1858 13.24416086 11838
HULIANWANG DIGUI-117    
1 66956U 25287D   26066.12933646  .00000050  00000+0  82460-4 0  9998
2 66956  86.4987 316.8727 0001148  19.7825 340.3353 13.24414207 11838
HULIANWANG DIGUI-118    
1 66957U 25287E   26066.12176384  .00000076  00000+0  14189-3 0  9997
2 66957  86.4963 316.8462 0002037  78.8107 281.3256 13.24415570 11836
HULIANWANG DIGUI-119    
1 67059U 25295A   26065.92619157 -.00000072  00000+0  95620-4 0  9994
2 67059  49.9835  33.2787 0001166 148.3017 211.7933 13.46538062 11887
HULIANWANG DIGUI-120    
1 67060U 25295B   26065.91235826 -.00000072  00000+0  94983-4 0  9993
2 67060  50.0312  33.2379 0000690 259.7821 100.2981 13.46886837 11881
HULIANWANG DIGUI-121    
1 67061U 25295C   26065.84542727 -.00000071  00000+0  97629-4 0  9996
2 67061  49.9987  33.5098 0000091  40.7039 319.3847 13.46944278 11879
HULIANWANG DIGUI-122    
1 67062U 25295D   26065.97940346 -.00000074  00000+0  92417-4 0  9993
2 67062  50.0090  32.9110 0000755 331.8680  28.2159 13.46845853 11892
HULIANWANG DIGUI-123    
1 67063U 25295E   26065.89804664 -.00000055  00000+0  12325-3 0  9995
2 67063  50.0059  33.1502 0000646 346.5990  13.4873 13.46994361 11889
HULIANWANG DIGUI-124    
1 67064U 25295F   26065.96570637 -.00000071  00000+0  96709-4 0  9991
2 67064  50.0029  32.7983 0000894  27.3896 332.7031 13.47115276 11894
HULIANWANG DIGUI-125    
1 67065U 25295G   26065.95892951 -.00000070  00000+0  98578-4 0  9992
2 67065  49.9992  32.7597 0001517  20.3092 339.7849 13.47592614 11895
HULIANWANG DIGUI-126    
1 67066U 25295H   26065.95173235 -.00000089  00000+0  67537-4 0  9991
2 67066  50.0020  32.7159 0001183  91.7957 268.3058 13.47239101 11894
HULIANWANG DIGUI-127    
1 67067U 25295J   26065.79310182 -.00000302  00000+0 -27910-3 0  9997
2 67067  50.0031  33.2352 0000939   9.6913 350.3985 13.47465042 11870
HULIANWANG DIGUI-128    
1 67236U 25311A   26066.16946955 -.00000064  00000+0  12684-3 0  9995
2 67236  50.0058 121.4091 0001057 109.6244 250.4743 13.31089696  9775
